start=new Date('2022-06-09T00:00:00.000Z').valueOf();
sats=[{"OBJECT_ID":"2020-019M","REV_AT_EPOCH":"12321","REF_FRAME":"TEME","DECAY_DATE":null,"CLASSIFICATION_TYPE":"U","COUNTRY_CODE":"US","FILE":"3485745","PERIOD":"95.591","ARG_OF_PERICENTER":"67.6481","SEMIMAJOR_AXIS":"6925.306","RCS_SIZE":"LARGE","RA_OF_ASC_NODE":"197.6051","EPOCH":"2022-06-08T12:08:23.920224","MEAN_MOTION_DOT":"0.00002803","ELEMENT_SET_NO":"999","MEAN_MOTION_DDOT":"0.0000000000000","TLE_LINE1":"1 45371U 20019M   22159.50583241  .00002803  00000-0  20693-3 0  9995","BSTAR":"0.00020693000000","OBJECT_NAME":"STARLINK-1287","APOAPSIS":"548.199","MEAN_ELEMENT_THEORY":"SGP4","ECCENTRICITY":"0.00014830","MEAN_MOTION":"15.06413729","PERIAPSIS":"546.144","MEAN_ANOMALY":"292.4665","NORAD_CAT_ID":"45371","TIME_SYSTEM":"UTC","SITE":"AFETR","GP_ID":"205632750","TLE_LINE2":"2 45371  53.0544 197.6051 0001483  67.6481 292.4665 15.06413729123211","CENTER_NAME":"EARTH","OBJECT_TYPE":"PAYLOAD","INCLINATION":"53.0544","EPHEMERIS_TYPE":"0","LAUNCH_DATE":"2020-03-18"},{"SITE":"AFETR","GP_ID":"205631500","TLE_LINE2":"2 45372  53.0522 198.1455 0001814  57.8698 302.2467 15.06400080123194","CENTER_NAME":"EARTH","OBJECT_TYPE":"PAYLOAD","INCLINATION":"53.0522","LAUNCH_DATE":"2020-03-18","EPHEMERIS_TYPE":"0","ECCENTRICITY":"0.00018140","MEAN_MOTION":"15.06400080","MEAN_ANOMALY":"302.2467","PERIAPSIS":"545.957","NORAD_CAT_ID":"45372","TIME_SYSTEM":"UTC","RCS_SIZE":"LARGE","SEMIMAJOR_AXIS":"6925.348","RA_OF_ASC_NODE":"198.1455","EPOCH":"2022-06-08T09:19:54.561216","MEAN_MOTION_DOT":"0.00001283","ELEMENT_SET_NO":"999","MEAN_MOTION_DDOT":"0.0000000000000","TLE_LINE1":"1 45372U 20019N   22159.38882594  .00001283  00000-0  10503-3 0  9995","BSTAR":"0.00010503000000","OBJECT_NAME":"STARLINK-1288","APOAPSIS":"548.470","MEAN_ELEMENT_THEORY":"SGP4","OBJECT_ID":"2020-019N","REV_AT_EPOCH":"12319","DECAY_DATE":null,"REF_FRAME":"TEME","CLASSIFICATION_TYPE":"U","COUNTRY_CODE":"US","FILE":"3485745","ARG_OF_PERICENTER":"57.8698","PERIOD":"95.592"},{"CENTER_NAME":"EARTH","TLE_LINE2":"2 45373  53.0543 198.2156 0001540  63.0786 297.0360 15.06395191123199","GP_ID":"205632251","SITE":"AFETR","LAUNCH_DATE":"2020-03-18","EPHEMERIS_TYPE":"0","INCLINATION":"53.0543","OBJECT_TYPE":"PAYLOAD","PERIAPSIS":"546.162","MEAN_ANOMALY":"297.0360","MEAN_MOTION":"15.06395191","ECCENTRICITY":"0.00015400","TIME_SYSTEM":"UTC","NORAD_CAT_ID":"45373","TLE_LINE1":"1 45373U 20019P   22159.37039585  .00000233  00000-0  34576-4 0  9990","MEAN_MOTION_DDOT":"0.0000000000000","ELEMENT_SET_NO":"999","RA_OF_ASC_NODE":"198.2156","RCS_SIZE":"LARGE","SEMIMAJOR_AXIS":"6925.363","MEAN_MOTION_DOT":"0.00000233","EPOCH":"2022-06-08T08:53:22.201440","MEAN_ELEMENT_THEORY":"SGP4","APOAPSIS":"548.295","OBJECT_NAME":"STARLINK-1295","BSTAR":"0.00003457600000","DECAY_DATE":null,"REF_FRAME":"TEME","REV_AT_EPOCH":"12319","OBJECT_ID":"2020-019P","PERIOD":"95.592","ARG_OF_PERICENTER":"63.0786","FILE":"3485745","COUNTRY_CODE":"US","CLASSIFICATION_TYPE":"U"},{"OBJECT_ID":"2020-019Q","REV_AT_EPOCH":"12321","REF_FRAME":"TEME","DECAY_DATE":null,"CLASSIFICATION_TYPE":"U","COUNTRY_CODE":"US","FILE":"3485745","ARG_OF_PERICENTER":"66.7823","PERIOD":"95.591","SEMIMAJOR_AXIS":"6925.318","RCS_SIZE":"LARGE","EPOCH":"2022-06-08T11:59:08.530656","MEAN_MOTION_DOT":"-0.00000391","RA_OF_ASC_NODE":"197.6401","ELEMENT_SET_NO":"999","MEAN_MOTION_DDOT":"0.0000000000000","TLE_LINE1":"1 45374U 20019Q   22159.49940429 -.00000391  00000-0 -73760-5 0  9998","BSTAR":"-0.00000737600000","OBJECT_NAME":"STARLINK-1300","APOAPSIS":"548.107","MEAN_ELEMENT_THEORY":"SGP4","ECCENTRICITY":"0.00013350","MEAN_MOTION":"15.06410106","PERIAPSIS":"546.258","MEAN_ANOMALY":"293.3307","NORAD_CAT_ID":"45374","TIME_SYSTEM":"UTC","SITE":"AFETR","GP_ID":"205632502","TLE_LINE2":"2 45374  53.0531 197.6401 0001335  66.7823 293.3307 15.06410106123214","CENTER_NAME":"EARTH","OBJECT_TYPE":"PAYLOAD","INCLINATION":"53.0531","EPHEMERIS_TYPE":"0","LAUNCH_DATE":"2020-03-18"},{"SITE":"AFETR","GP_ID":"205643672","TLE_LINE2":"2 45375  53.0524 197.2744 0001467  62.9364 297.1774 15.06398290123227","CENTER_NAME":"EARTH","OBJECT_TYPE":"PAYLOAD","INCLINATION":"53.0524","LAUNCH_DATE":"2020-03-18","EPHEMERIS_TYPE":"0","ECCENTRICITY":"0.00014670","MEAN_MOTION":"15.06398290","PERIAPSIS":"546.203","MEAN_ANOMALY":"297.1774","NORAD_CAT_ID":"45375","TIME_SYSTEM":"UTC","ELEMENT_SET_NO":"999","SEMIMAJOR_AXIS":"6925.354","RCS_SIZE":"LARGE","EPOCH":"2022-06-08T13:55:54.543360","RA_OF_ASC_NODE":"197.2744","MEAN_MOTION_DOT":"0.00001190","MEAN_MOTION_DDOT":"0.0000000000000","TLE_LINE1":"1 45375U 20019R   22159.58049240  .00001190  00000-0  98774-4 0  9997","BSTAR":"0.00009877400000","OBJECT_NAME":"STARLINK-1302","MEAN_ELEMENT_THEORY":"SGP4","APOAPSIS":"548.235","OBJECT_ID":"2020-019R","REV_AT_EPOCH":"12322","REF_FRAME":"TEME","DECAY_DATE":null,"CLASSIFICATION_TYPE":"U","COUNTRY_CODE":"US","ARG_OF_PERICENTER":"62.9364","PERIOD":"95.592","FILE":"3486153"},{"NORAD_CAT_ID":"45376","TIME_SYSTEM":"UTC","MEAN_MOTION":"15.06388478","ECCENTRICITY":"0.00013560","MEAN_ANOMALY":"286.0962","PERIAPSIS":"546.310","INCLINATION":"53.0524","OBJECT_TYPE":"PAYLOAD","LAUNCH_DATE":"2020-03-18","EPHEMERIS_TYPE":"0","GP_ID":"205632001","SITE":"AFETR","CENTER_NAME":"EARTH","TLE_LINE2":"2 45376  53.0524 197.5004 0001356  74.0176 286.0962 15.06388478123214","CLASSIFICATION_TYPE":"U","FILE":"3485745","PERIOD":"95.593","ARG_OF_PERICENTER":"74.0176","COUNTRY_CODE":"US","OBJECT_ID":"2020-019S","REF_FRAME":"TEME","DECAY_DATE":null,"REV_AT_EPOCH":"12321","OBJECT_NAME":"STARLINK-1304","BSTAR":"-0.00002730100000","APOAPSIS":"548.188","MEAN_ELEMENT_THEORY":"SGP4","MEAN_MOTION_DDOT":"0.0000000000000","MEAN_MOTION_DOT":"-0.00000688","RCS_SIZE":"LARGE","SEMIMAJOR_AXIS":"6925.384","RA_OF_ASC_NODE":"197.5004","EPOCH":"2022-06-08T12:46:55.084800","ELEMENT_SET_NO":"999","TLE_LINE1":"1 45376U 20019S   22159.53258200 -.00000688  00000-0 -27301-4 0  9992"},{"CENTER_NAME":"EARTH","TLE_LINE2":"2 45377  53.0536 197.6653 0001274  68.2677 291.8448 15.06390614123217","GP_ID":"205631751","SITE":"AFETR","EPHEMERIS_TYPE":"0","LAUNCH_DATE":"2020-03-18","INCLINATION":"53.0536","OBJECT_TYPE":"PAYLOAD","MEAN_ANOMALY":"291.8448","PERIAPSIS":"546.360","MEAN_MOTION":"15.06390614","ECCENTRICITY":"0.00012740","TIME_SYSTEM":"UTC","NORAD_CAT_ID":"45377","TLE_LINE1":"1 45377U 20019T   22159.49203634  .00001221  00000-0  10086-3 0  9992","MEAN_MOTION_DDOT":"0.0000000000000","ELEMENT_SET_NO":"999","RCS_SIZE":"LARGE","EPOCH":"2022-06-08T11:48:31.939776","SEMIMAJOR_AXIS":"6925.377","RA_OF_ASC_NODE":"197.6653","MEAN_MOTION_DOT":"0.00001221","MEAN_ELEMENT_THEORY":"SGP4","APOAPSIS":"548.125","OBJECT_NAME":"STARLINK-1305","BSTAR":"0.00010086000000","DECAY_DATE":null,"REF_FRAME":"TEME","REV_AT_EPOCH":"12321","OBJECT_ID":"2020-019T","ARG_OF_PERICENTER":"68.2677","PERIOD":"95.593","FILE":"3485745","COUNTRY_CODE":"US","CLASSIFICATION_TYPE":"U"},{"OBJECT_TYPE":"PAYLOAD","INCLINATION":"53.0524","EPHEMERIS_TYPE":"0","LAUNCH_DATE":"2020-03-18","SITE":"AFETR","GP_ID":"205633003","TLE_LINE2":"2 45378  53.0524 197.7213 0001493  59.5061 300.6075 15.06390454123218","CENTER_NAME":"EARTH","NORAD_CAT_ID":"45378","TIME_SYSTEM":"UTC","ECCENTRICITY":"0.00014930","MEAN_MOTION":"15.06390454","PERIAPSIS":"546.209","MEAN_ANOMALY":"300.6075","BSTAR":"-0.00001528800000","OBJECT_NAME":"STARLINK-1310","APOAPSIS":"548.277","MEAN_ELEMENT_THEORY":"SGP4","SEMIMAJOR_AXIS":"6925.378","RCS_SIZE":"LARGE","MEAN_MOTION_DOT":"-0.00000509","EPOCH":"2022-06-08T11:32:36.719520","RA_OF_ASC_NODE":"197.7213","ELEMENT_SET_NO":"999","MEAN_MOTION_DDOT":"0.0000000000000","TLE_LINE1":"1 45378U 20019U   22159.48098055 -.00000509  00000-0 -15288-4 0  9991","CLASSIFICATION_TYPE":"U","COUNTRY_CODE":"US","FILE":"3485745","ARG_OF_PERICENTER":"59.5061","PERIOD":"95.593","OBJECT_ID":"2020-019U","REV_AT_EPOCH":"12321","REF_FRAME":"TEME","DECAY_DATE":null},{"OBJECT_NAME":"STARLINK-1319","BSTAR":"0.00009831700000","MEAN_ELEMENT_THEORY":"SGP4","APOAPSIS":"548.329","MEAN_MOTION_DDOT":"0.0000000000000","ELEMENT_SET_NO":"999","SEMIMAJOR_AXIS":"6925.337","RCS_SIZE":"LARGE","EPOCH":"2022-06-08T11:37:54.230880","RA_OF_ASC_NODE":"197.7037","MEAN_MOTION_DOT":"0.00001183","TLE_LINE1":"1 45379U 20019V   22159.48465545  .00001183  00000-0  98317-4 0  9995","CLASSIFICATION_TYPE":"U","ARG_OF_PERICENTER":"73.6490","PERIOD":"95.592","FILE":"3485745","COUNTRY_CODE":"US","OBJECT_ID":"2020-019V","REF_FRAME":"TEME","DECAY_DATE":null,"REV_AT_EPOCH":"12321","INCLINATION":"53.0535","OBJECT_TYPE":"PAYLOAD","LAUNCH_DATE":"2020-03-18","EPHEMERIS_TYPE":"0","GP_ID":"205632751","SITE":"AFETR","CENTER_NAME":"EARTH","TLE_LINE2":"2 45379  53.0535 197.7037 0001627  73.6490 286.4678 15.06403786123210","NORAD_CAT_ID":"45379","TIME_SYSTEM":"UTC","MEAN_MOTION":"15.06403786","ECCENTRICITY":"0.00016270","MEAN_ANOMALY":"286.4678","PERIAPSIS":"546.075"},{"TIME_SYSTEM":"UTC","NORAD_CAT_ID":"45380","MEAN_ANOMALY":"306.1538","PERIAPSIS":"545.749","ECCENTRICITY":"0.00021340","MEAN_MOTION":"15.06395758","EPHEMERIS_TYPE":"0","LAUNCH_DATE":"2020-03-18","OBJECT_TYPE":"PAYLOAD","INCLINATION":"53.0550","TLE_LINE2":"2 45380  53.0550 178.3094 0002134  53.9648 306.1538 15.06395758123468","CENTER_NAME":"EARTH","SITE":"AFETR","GP_ID":"205631501","COUNTRY_CODE":"US","PERIOD":"95.592","ARG_OF_PERICENTER":"53.9648","FILE":"3485745","CLASSIFICATION_TYPE":"U","REV_AT_EPOCH":"12346","REF_FRAME":"TEME","DECAY_DATE":null,"OBJECT_ID":"2020-019W","MEAN_ELEMENT_THEORY":"SGP4","APOAPSIS":"548.704","BSTAR":"-0.00002905600000","OBJECT_NAME":"STARLINK-1207","TLE_LINE1":"1 45380U 20019W   22159.35012545 -.00000714  00000-0 -29056-4 0  9996","ELEMENT_SET_NO":"999","RCS_SIZE":"LARGE","RA_OF_ASC_NODE":"178.3094","SEMIMAJOR_AXIS":"6925.362","EPOCH":"2022-06-08T08:24:10.838880","MEAN_MOTION_DOT":"-0.00000714","MEAN_MOTION_DDOT":"0.0000000000000"}];
